0 ARIANE 5 R/B
1 36034U 09058C   13282.39192145  .00007412  00000-0  85884-3 0   270
2 36034 005.7559 203.9012 6942622 088.3006 026.7152 02.73689767 36346
0 ARIANE 5 R/B
1 36034U 09058C   13285.30606330  .00007102  00000-0  82112-3 0   288
2 36034 005.7555 202.2933 6942132 091.3926 018.1811 02.73729554 36422
0 ARIANE 5 R/B
1 36034U 09058C   13287.61554866  .00007279  00000-0  83693-3 0   291
2 36034 005.7547 201.0252 6941657 093.8353 134.1341 02.73759133 36485
0 ARIANE 5 R/B
1 36034U 09058C   13289.32182358  .00007016  00000-0  80997-3 0   309
2 36034 005.7548 200.0797 6941301 095.6507 015.7976 02.73781822 36530
0 ARIANE 5 R/B
1 36034U 09058C   13290.38109076  .00005156  00000-0  55362-3 0   326
2 36034 005.7554 199.4872 6942938 096.7811 339.8677 02.73801139 36564
0 ARIANE 5 R/B
1 36034U 09058C   13291.14600221  .00006761  00000-0  79589-3 0   318
2 36034 005.7550 199.0701 6940898 097.5863 013.8137 02.73804661 36581
0 ARIANE 5 R/B
1 36034U 09058C   13292.24248062  .00006496  00000-0  76607-3 0   325
2 36034 005.7555 198.4162 6940955 098.7960 014.6354 02.73817016 36617
0 ARIANE 5 R/B
1 36034U 09058C   13294.44749373  .00006684  00000-0  82215-3 0   332
2 36034 005.7563 197.2606 6940359 101.0699 028.3254 02.73843068 36674
